HAWK-2B                 
1 47508U 21006CZ  26068.67629241  .00009474  00000+0  29651-3 0  9991
2 47508  97.2334 114.1140 0007102 185.9063 174.2098 15.33301353284246
STARLINK-31609          
1 59269U 24050R   26068.60630096  .00000851  00000+0  40853-4 0  9991
2 59269  53.1609 181.5288 0001047  78.8623 281.2496 15.30187672110538
